STARLINK-30831          
1 58153U 23166D   23325.50001157 -.00757890  00000+0 -17570-1 0  9992
2 58153  53.0546 147.0701 0001420 126.8218 298.4540 15.44331261  4873
STARLINK-30797          
1 58154U 23166E   23325.50001157 -.00705517  00000+0 -16266-1 0  9993
2 58154  53.0548 147.0727 0001324 122.5320 301.5741 15.44323371  4641
STARLINK-30804          
1 58155U 23166F   23325.50001157 -.00742173  00000+0 -17179-1 0  9997
2 58155  53.0546 147.0690 0001337 119.6186 306.2431 15.44326156  4877
STARLINK-30784          
1 58156U 23166G   23325.50001157 -.00759323  00000+0 -17608-1 0  9990
2 58156  53.0546 147.0663 0001542 128.8699 298.1624 15.44327117  4700
STARLINK-30803          
1 58157U 23166H   23325.50001157 -.00742341  00000+0 -17184-1 0  9992
2 58157  53.0546 147.0677 0001362 118.8459 307.6015 15.44324650  4641
STARLINK-30829          
1 58158U 23166J   23325.50001157 -.00732007  00000+0 -16930-1 0  9999
2 58158  53.0547 147.0652 0001392 121.5162 306.1028 15.44316526  4877
STARLINK-30788          
1 58159U 23166K   23325.50001157 -.00736707  00000+0 -17046-1 0  9990
2 58159  53.0546 147.0641 0001302 118.0001 310.2036 15.44319787  4708
STARLINK-30779          
1 58160U 23166L   23325.50001157 -.00752776  00000+0 -17446-1 0  9990
2 58160  53.0546 147.0628 0001576 136.0230 292.7649 15.44322743  4870
STARLINK-30773          
1 58161U 23166M   23325.50001157 -.00746240  00000+0 -17284-1 0  9990
2 58161  53.0547 147.0615 0001644 131.1236 298.2504 15.44318881  4886
STARLINK-30816          
1 58162U 23166N   23325.50001157 -.00724655  00000+0 -16750-1 0  9994
2 58162  53.0546 147.0604 0001230 115.9935 313.9666 15.44311153  4879
STARLINK-30763          
1 58163U 23166P   23325.16667824 -.01774597  00000+0 -20604-1 0  9990
2 58163  53.0537 147.0017 0000816  81.8362  20.0399 15.64070825  4837
STARLINK-30815          
1 58164U 23166Q   23325.50001157 -.00728161  00000+0 -16838-1 0  9999
2 58164  53.0547 147.0591 0001409 121.0345 309.5119 15.44309253  4870
STARLINK-30814          
1 58165U 23166R   23325.50001157 -.00707992  00000+0 -16341-1 0  9998
2 58165  53.0544 147.0526 0001288 115.8972 317.5754 15.44299464  4874
STARLINK-30789          
1 58166U 23166S   23325.50001157 -.00720783  00000+0 -16656-1 0  9991
2 58166  53.0547 147.0566 0001428 119.0980 312.6193 15.44305226  4869
STARLINK-30811          
1 58167U 23166T   23325.50001157 -.00725526  00000+0 -16772-1 0  9991
2 58167  53.0545 147.0542 0001582 124.7766 308.1103 15.44308375  4700
STARLINK-30812          
1 58168U 23166U   23325.50001157 -.00714849  00000+0 -16509-1 0  9996
2 58168  53.0545 147.0554 0001279 126.9033 305.3986 15.44304462  4709
