[{"OBJECT_NAME":"STARLINK-30831","OBJECT_ID":"2023-166D","EPOCH":"2023-11-21T12:00:00.999648","MEAN_MOTION":15.44331261,"ECCENTRICITY":0.000142,"INCLINATION":53.0546,"RA_OF_ASC_NODE":147.0701,"ARG_OF_PERICENTER":126.8218,"MEAN_ANOMALY":298.454,"EPHEMERIS_TYPE":0,"CLASSIFICATION_TYPE":"U","NORAD_CAT_ID":58153,"ELEMENT_SET_NO":999,"REV_AT_EPOCH":487,"BSTAR":-0.01757,"MEAN_MOTION_DOT":-0.0075789,"MEAN_MOTION_DDOT":0},{"OBJECT_NAME":"STARLINK-30797","OBJECT_ID":"2023-166E","EPOCH":"2023-11-21T12:00:00.999648","MEAN_MOTION":15.44323371,"ECCENTRICITY":0.0001324,"INCLINATION":53.0548,"RA_OF_ASC_NODE":147.0727,"ARG_OF_PERICENTER":122.532,"MEAN_ANOMALY":301.5741,"EPHEMERIS_TYPE":0,"CLASSIFICATION_TYPE":"U","NORAD_CAT_ID":58154,"ELEMENT_SET_NO":999,"REV_AT_EPOCH":464,"BSTAR":-0.016266,"MEAN_MOTION_DOT":-0.00705517,"MEAN_MOTION_DDOT":0},{"OBJECT_NAME":"STARLINK-30804","OBJECT_ID":"2023-166F","EPOCH":"2023-11-21T12:00:00.999648","MEAN_MOTION":15.44326156,"ECCENTRICITY":0.0001337,"INCLINATION":53.0546,"RA_OF_ASC_NODE":147.069,"ARG_OF_PERICENTER":119.6186,"MEAN_ANOMALY":306.2431,"EPHEMERIS_TYPE":0,"CLASSIFICATION_TYPE":"U","NORAD_CAT_ID":58155,"ELEMENT_SET_NO":999,"REV_AT_EPOCH":487,"BSTAR":-0.017179,"MEAN_MOTION_DOT":-0.00742173,"MEAN_MOTION_DDOT":0},{"OBJECT_NAME":"STARLINK-30784","OBJECT_ID":"2023-166G","EPOCH":"2023-11-21T12:00:00.999648","MEAN_MOTION":15.44327117,"ECCENTRICITY":0.0001542,"INCLINATION":53.0546,"RA_OF_ASC_NODE":147.0663,"ARG_OF_PERICENTER":128.8699,"MEAN_ANOMALY":298.1624,"EPHEMERIS_TYPE":0,"CLASSIFICATION_TYPE":"U","NORAD_CAT_ID":58156,"ELEMENT_SET_NO":999,"REV_AT_EPOCH":470,"BSTAR":-0.017608,"MEAN_MOTION_DOT":-0.00759323,"MEAN_MOTION_DDOT":0},{"OBJECT_NAME":"STARLINK-30803","OBJECT_ID":"2023-166H","EPOCH":"2023-11-21T12:00:00.999648","MEAN_MOTION":15.4432465,"ECCENTRICITY":0.0001362,"INCLINATION":53.0546,"RA_OF_ASC_NODE":147.0677,"ARG_OF_PERICENTER":118.8459,"MEAN_ANOMALY":307.6015,"EPHEMERIS_TYPE":0,"CLASSIFICATION_TYPE":"U","NORAD_CAT_ID":58157,"ELEMENT_SET_NO":999,"REV_AT_EPOCH":464,"BSTAR":-0.017184,"MEAN_MOTION_DOT":-0.00742341,"MEAN_MOTION_DDOT":0},{"OBJECT_NAME":"STARLINK-30829","OBJECT_ID":"2023-166J","EPOCH":"2023-11-21T12:00:00.999648","MEAN_MOTION":15.44316526,"ECCENTRICITY":0.0001392,"INCLINATION":53.0547,"RA_OF_ASC_NODE":147.0652,"ARG_OF_PERICENTER":121.5162,"MEAN_ANOMALY":306.1028,"EPHEMERIS_TYPE":0,"CLASSIFICATION_TYPE":"U","NORAD_CAT_ID":58158,"ELEMENT_SET_NO":999,"REV_AT_EPOCH":487,"BSTAR":-0.01693,"MEAN_MOTION_DOT":-0.00732007,"MEAN_MOTION_DDOT":0},{"OBJECT_NAME":"STARLINK-30788","OBJECT_ID":"2023-166K","EPOCH":"2023-11-21T12:00:00.999648","MEAN_MOTION":15.44319787,"ECCENTRICITY":0.0001302,"INCLINATION":53.0546,"RA_OF_ASC_NODE":147.0641,"ARG_OF_PERICENTER":118.0001,"MEAN_ANOMALY":310.2036,"EPHEMERIS_TYPE":0,"CLASSIFICATION_TYPE":"U","NORAD_CAT_ID":58159,"ELEMENT_SET_NO":999,"REV_AT_EPOCH":470,"BSTAR":-0.017046,"MEAN_MOTION_DOT":-0.00736707,"MEAN_MOTION_DDOT":0},{"OBJECT_NAME":"STARLINK-30779","OBJECT_ID":"2023-166L","EPOCH":"2023-11-21T12:00:00.999648","MEAN_MOTION":15.44322743,"ECCENTRICITY":0.0001576,"INCLINATION":53.0546,"RA_OF_ASC_NODE":147.0628,"ARG_OF_PERICENTER":136.023,"MEAN_ANOMALY":292.7649,"EPHEMERIS_TYPE":0,"CLASSIFICATION_TYPE":"U","NORAD_CAT_ID":58160,"ELEMENT_SET_NO":999,"REV_AT_EPOCH":487,"BSTAR":-0.017446,"MEAN_MOTION_DOT":-0.00752776,"MEAN_MOTION_DDOT":0},{"OBJECT_NAME":"STARLINK-30773","OBJECT_ID":"2023-166M","EPOCH":"2023-11-21T12:00:00.999648","MEAN_MOTION":15.44318881,"ECCENTRICITY":0.0001644,"INCLINATION":53.0547,"RA_OF_ASC_NODE":147.0615,"ARG_OF_PERICENTER":131.1236,"MEAN_ANOMALY":298.2504,"EPHEMERIS_TYPE":0,"CLASSIFICATION_TYPE":"U","NORAD_CAT_ID":58161,"ELEMENT_SET_NO":999,"REV_AT_EPOCH":488,"BSTAR":-0.017284,"MEAN_MOTION_DOT":-0.0074624,"MEAN_MOTION_DDOT":0},{"OBJECT_NAME":"STARLINK-30816","OBJECT_ID":"2023-166N","EPOCH":"2023-11-21T12:00:00.999648","MEAN_MOTION":15.44311153,"ECCENTRICITY":0.000123,"INCLINATION":53.0546,"RA_OF_ASC_NODE":147.0604,"ARG_OF_PERICENTER":115.9935,"MEAN_ANOMALY":313.9666,"EPHEMERIS_TYPE":0,"CLASSIFICATION_TYPE":"U","NORAD_CAT_ID":58162,"ELEMENT_SET_NO":999,"REV_AT_EPOCH":487,"BSTAR":-0.01675,"MEAN_MOTION_DOT":-0.00724655,"MEAN_MOTION_DDOT":0},{"OBJECT_NAME":"STARLINK-30763","OBJECT_ID":"2023-166P","EPOCH":"2023-11-21T04:00:00.999936","MEAN_MOTION":15.64070825,"ECCENTRICITY":8.16e-5,"INCLINATION":53.0537,"RA_OF_ASC_NODE":147.0017,"ARG_OF_PERICENTER":81.8362,"MEAN_ANOMALY":20.0399,"EPHEMERIS_TYPE":0,"CLASSIFICATION_TYPE":"U","NORAD_CAT_ID":58163,"ELEMENT_SET_NO":999,"REV_AT_EPOCH":483,"BSTAR":-0.020604,"MEAN_MOTION_DOT":-0.01774597,"MEAN_MOTION_DDOT":0},{"OBJECT_NAME":"STARLINK-30815","OBJECT_ID":"2023-166Q","EPOCH":"2023-11-21T12:00:00.999648","MEAN_MOTION":15.44309253,"ECCENTRICITY":0.0001409,"INCLINATION":53.0547,"RA_OF_ASC_NODE":147.0591,"ARG_OF_PERICENTER":121.0345,"MEAN_ANOMALY":309.5119,"EPHEMERIS_TYPE":0,"CLASSIFICATION_TYPE":"U","NORAD_CAT_ID":58164,"ELEMENT_SET_NO":999,"REV_AT_EPOCH":487,"BSTAR":-0.016838,"MEAN_MOTION_DOT":-0.00728161,"MEAN_MOTION_DDOT":0},{"OBJECT_NAME":"STARLINK-30814","OBJECT_ID":"2023-166R","EPOCH":"2023-11-21T12:00:00.999648","MEAN_MOTION":15.44299464,"ECCENTRICITY":0.0001288,"INCLINATION":53.0544,"RA_OF_ASC_NODE":147.0526,"ARG_OF_PERICENTER":115.8972,"MEAN_ANOMALY":317.5754,"EPHEMERIS_TYPE":0,"CLASSIFICATION_TYPE":"U","NORAD_CAT_ID":58165,"ELEMENT_SET_NO":999,"REV_AT_EPOCH":487,"BSTAR":-0.016341,"MEAN_MOTION_DOT":-0.00707992,"MEAN_MOTION_DDOT":0},{"OBJECT_NAME":"STARLINK-30789","OBJECT_ID":"2023-166S","EPOCH":"2023-11-21T12:00:00.999648","MEAN_MOTION":15.44305226,"ECCENTRICITY":0.0001428,"INCLINATION":53.0547,"RA_OF_ASC_NODE":147.0566,"ARG_OF_PERICENTER":119.098,"MEAN_ANOMALY":312.6193,"EPHEMERIS_TYPE":0,"CLASSIFICATION_TYPE":"U","NORAD_CAT_ID":58166,"ELEMENT_SET_NO":999,"REV_AT_EPOCH":486,"BSTAR":-0.016656,"MEAN_MOTION_DOT":-0.00720783,"MEAN_MOTION_DDOT":0},{"OBJECT_NAME":"STARLINK-30811","OBJECT_ID":"2023-166T","EPOCH":"2023-11-21T12:00:00.999648","MEAN_MOTION":15.44308375,"ECCENTRICITY":0.0001582,"INCLINATION":53.0545,"RA_OF_ASC_NODE":147.0542,"ARG_OF_PERICENTER":124.7766,"MEAN_ANOMALY":308.1103,"EPHEMERIS_TYPE":0,"CLASSIFICATION_TYPE":"U","NORAD_CAT_ID":58167,"ELEMENT_SET_NO":999,"REV_AT_EPOCH":470,"BSTAR":-0.016772,"MEAN_MOTION_DOT":-0.00725526,"MEAN_MOTION_DDOT":0},{"OBJECT_NAME":"STARLINK-30812","OBJECT_ID":"2023-166U","EPOCH":"2023-11-21T12:00:00.999648","MEAN_MOTION":15.44304462,"ECCENTRICITY":0.0001279,"INCLINATION":53.0545,"RA_OF_ASC_NODE":147.0554,"ARG_OF_PERICENTER":126.9033,"MEAN_ANOMALY":305.3986,"EPHEMERIS_TYPE":0,"CLASSIFICATION_TYPE":"U","NORAD_CAT_ID":58168,"ELEMENT_SET_NO":999,"REV_AT_EPOCH":470,"BSTAR":-0.016509,"MEAN_MOTION_DOT":-0.00714849,"MEAN_MOTION_DDOT":0}]
